{"type": "FeatureCollection", "features": [ {"type": "Feature", "properties": {"norad_id": 66911, "name": "1998-067XX", "group": "stations", "lat": 6.486757040956918, "lon": -102.77582496481271, "alt_km": 406.6963226516973, "timestamp": "2025-12-24T18:55:54.810145+00:00", "meta": {"OBJECT_NAME": "1998-067XX", "OBJECT_ID": "1998-067XX", "EPOCH": "2025-12-24T05:50:45.830400", "MEAN_MOTION": 15.53583862, "ECCENTRICITY": 0.00036335, "INCLINATION": 51.6309, "RA_OF_ASC_NODE": 85.1103, "ARG_OF_PERICENTER": 279.0791, "MEAN_ANOMALY": 80.9788, "EPHEMERIS_TYPE": 0, "CLASSIFICATION_TYPE": "U", "NORAD_CAT_ID": 66911, "ELEMENT_SET_NO": 999, "REV_AT_EPOCH": 339, "BSTAR": 0.0012104757, "MEAN_MOTION_DOT": 0.00078877, "MEAN_MOTION_DDOT": 0}, "tle": {"line1": "1 66911U 98067XX  25358.24358600  .00078877  00000+0  12105-2 0  9991", "line2": "2 66911  51.6309  85.1103 0003633 279.0791  80.9788 15.53583862  3398"}}, "geometry": {"type": "Point", "coordinates": [-102.77582496481271, 6.486757040956918]}}, {"type": "Feature", "properties": {"norad_id": 66912, "name": "1998-067XY", "group": "stations", "lat": 50.27922679102802, "lon": -169.93559144721016, "alt_km": 405.72794622944, "timestamp": "2025-12-24T18:55:54.810156+00:00", "meta": {"OBJECT_NAME": "1998-067XY", "OBJECT_ID": "1998-067XY", "EPOCH": "2025-12-23T06:57:34.859520", "MEAN_MOTION": 15.52133019, "ECCENTRICITY": 0.00038791, "INCLINATION": 51.6317, "RA_OF_ASC_NODE": 89.9922, "ARG_OF_PERICENTER": 281.5198, "MEAN_ANOMALY": 78.5356, "EPHEMERIS_TYPE": 0, "CLASSIFICATION_TYPE": "U", "NORAD_CAT_ID": 66912, "ELEMENT_SET_NO": 999, "REV_AT_EPOCH": 324, "BSTAR": 0.00084098106, "MEAN_MOTION_DOT": 0.00051669, "MEAN_MOTION_DDOT": 0}, "tle": {"line1": "1 66912U 98067XY  25357.28998680  .00051669  00000+0  84098-3 0  9994", "line2": "2 66912  51.6317  89.9922 0003879 281.5198  78.5356 15.52133019  3242"}}, "geometry": {"type": "Point", "coordinates": [-169.93559144721016, 50.27922679102802]}}]}